CUTE-1 (CO-55)          
1 27844U 03031E   20280.93839438  .00000039  00000-0  36967-4 0  9998
2 27844  98.6835 286.9961 0011007  92.6494 267.5944 14.22259614895948
CUBESAT XI-IV (CO-57)   
1 27848U 03031J   20280.71603762  .00000026  00000-0  31523-4 0  9996
2 27848  98.6900 287.3422 0010851 104.5681 255.6701 14.21843759895755
CUBESAT XI-V            
1 28895U 05043F   20280.63038895  .00000146  00000-0  36878-4 0  9995
2 28895  98.0259  53.9724 0015515 291.8290  68.1262 14.63805961797107
CUTE-1.7+APD II (CO-65) 
1 32785U 08021C   20280.78811253  .00000235  00000-0  30898-4 0  9995
2 32785  97.5836 263.9666 0014307 120.6440 239.6190 14.88525148674435
AAUSAT-II               
1 32788U 08021F   20280.95165583  .00000944  00000-0  90853-4 0  9999
2 32788  97.4953 280.5187 0012864  47.1764 313.0536 14.95169934675974
DELFI-C3 (DO-64)        
1 32789U 08021G   20280.68922889  .00001041  00000-0  71598-4 0  9994
2 32789  97.4084 319.5567 0010455 297.7364  62.2804 15.07979935678572
SEEDS II (CO-66)        
1 32791U 08021J   20280.46175743  .00000480  00000-0  53715-4 0  9999
2 32791  97.5493 269.7574 0014833  92.2956 267.9962 14.91124937674923
SWISSCUBE               
1 35932U 09051B   20280.44530039  .00000119  00000-0  37906-4 0  9997
2 35932  98.6119 106.3159 0008203 140.2919 219.8880 14.56430584585983
BEESAT-1                
1 35933U 09051C   20280.49077332  .00000101  00000-0  33785-4 0  9997
2 35933  98.6104 108.2301 0006198 149.8050 210.3505 14.56501815586066
ITUPSAT1                
1 35935U 09051E   20280.48202711  .00000079  00000-0  29223-4 0  9995
2 35935  98.6211 108.4051 0008527 152.4011 207.7639 14.55643878585822
TISAT 1                 
1 36799U 10035E   20280.94390665  .00000235  00000-0  29634-4 0  9995
2 36799  98.2026  95.5683 0011534 330.4027  29.6536 14.91439502555545
M-CUBED & EXP-1 PRIME   
1 37855U 11061F   20280.42904891  .00002208  00000-0  11492-3 0  9998
2 37855 101.7246  66.1115 0169991 105.5174 256.4879 15.06614637487918
AEROCUBE 4.5A           
1 38767U 12048K   20280.92210898  .00000364  00000-0  45325-4 0  9993
2 38767  64.6655 247.7622 0134171  96.0579 265.5841 14.92391506 58439
AEROCUBE 4.5B           
1 38768U 12048L   20280.25549129  .00000663  00000-0  65049-4 0  9999
2 38768  64.6670 216.4221 0124089  91.2273 270.3060 14.96100536 58454
STRAND-1                
1 39090U 13009E   20280.49156417  .00000018  00000-0  21266-4 0  9993
2 39090  98.4469 122.3947 0008439 320.6771  39.3801 14.35146629398613
SOMP                    
1 39134U 13015E   20280.61341617  .00001465  00000-0  73880-4 0  9997
2 39134  64.8615 277.1715 0023900 227.1639 132.7481 15.21335694412581
BEESAT-3                
1 39135U 13015F   20280.55987193  .00000923  00000-0  54033-4 0  9993
2 39135  64.8667 302.5340 0030014 225.5461 134.3210 15.18405816412088
BEESAT-2                
1 39136U 13015G   20280.78385256  .00001192  00000-0  67766-4 0  9997
2 39136  64.8741 307.1856 0035307 267.7463  91.9620 15.17796464412012
NEE-01 PEGASO           
1 39151U 13018B   20280.53570113  .00000187  00000-0  31548-4 0  9990
2 39151  97.9762  18.6063 0018410 100.2523 260.0766 14.80209313402118
ESTCUBE 1               
1 39161U 13021C   20280.46326153  .00000174  00000-0  35198-4 0  9991
2 39161  97.9605   1.2417 0008297 243.3787 116.6587 14.72356608398379
POPACS 1                
1 39268U 13055D   20280.42558846  .00002862  00000-0  78667-4 0  9992
2 39268  81.0040 178.7879 0612106 252.4138 100.9321 14.40193560363967
POPACS 2                
1 39269U 13055E   20280.25487233  .00005287  00000-0  15081-3 0  9999
2 39269  81.0158 219.5868 0675819 358.2735   1.6106 14.26004714361779
POPACS 3                
1 39270U 13055F   20280.61897388  .00001891  00000-0  56938-4 0  9991
2 39270  81.0155 242.4070 0709719  63.5909 303.6315 14.17146531340873
ZACUBE-1 (TSHEPISOSAT)  
1 39417U 13066B   20280.95701793  .00000213  00000-0  33149-4 0  9993
2 39417  97.5723 272.8148 0057251 272.4386  87.0274 14.81329391371542
WNISAT-1                
1 39423U 13066H   20280.38543554  .00000102  00000-0  30562-4 0  9999
2 39423  97.7966 194.2777 0174000 269.7959  88.3299 14.53143435364536
TRITON-1                
1 39427U 13066M   20280.51076724  .00000297  00000-0  54824-4 0  9990
2 39427  97.7386 235.3425 0115093  82.9304 278.4973 14.68054520368154
GOMX-1                  
1 39430U 13066Q   20280.87455984  .00000158  00000-0  37674-4 0  9992
2 39430  97.7949 212.6995 0150134 193.1149 166.6134 14.59443701366057
CUBEBUG-2 (LO-74)       
1 39440U 13066AA  20280.53023484  .00000278  00000-0  45581-4 0  9991
2 39440  97.6431 256.9591 0079646 340.6681  19.1512 14.76064797368961
NEE-02 KRYSAOR          
1 39441U 13066AB  20280.48161388  .00000203  00000-0  35873-4 0  9993
2 39441  97.6510 254.3697 0081437 350.3913   9.5735 14.75054135368779
FUNCUBE-1 (AO-73)       
1 39444U 13066AE  20280.95775615  .00000275  00000-0  40050-4 0  9994
2 39444  97.5657 275.1035 0056333 263.8652  95.6142 14.82193932369883
UWE-3                   
1 39446U 13066AG  20280.46396213  .00000254  00000-0  40345-4 0  9999
2 39446  97.6088 264.0403 0068724 308.5375  50.9689 14.78598047368976
AEROCUBE 5A             
1 39465U 13072D   20280.74820808  .00012573  00000-0  99873-3 0  9996
2 39465 120.4932 206.3726 0265229   1.1813 358.9827 14.77289269 57803
AEROCUBE 5B             
1 39466U 13072E   20280.49541093  .00018004  00000-0  11932-2 0  9999
2 39466 120.4897 248.3221 0236577  12.1897 348.4763 14.87393112 58086
BRITE-CA1 (TORONTO)     
1 40020U 14033L   20280.48064004  .00000074  00000-0  20761-4 0  9996
2 40020  97.7322 102.3461 0088768  78.5782 282.5378 14.66662833337046
DUCHIFAT-1              
1 40021U 14033M   20280.61936693  .00000566  00000-0  63074-4 0  9994
2 40021  97.9462 212.5580 0011450 283.6807  76.3136 14.90993806342457
NANOSATC-BR1            
1 40024U 14033Q   20280.83895395  .00000368  00000-0  43952-4 0  9997
2 40024  97.9291 208.7887 0010834 288.2649  71.7389 14.90150253341827
QB50P1                  
1 40025U 14033R   20280.59171490  .00000338  00000-0  41737-4 0  9990
2 40025  97.9150 204.8864 0011137 297.6031  62.4054 14.89201795341631
QB50P2                  
1 40032U 14033Y   20280.60935697  .00000338  00000-0  42217-4 0  9991
2 40032  97.9022 202.1247 0010536 294.3605  65.6511 14.88723438341529
PERSEUS-M2              
1 40037U 14033AD  20280.32486912  .00000103  00000-0  17811-4 0  9998
2 40037  97.8840 195.8121 0013333 313.1544  46.8556 14.86570531341139
PERSEUS-M1              
1 40039U 14033AF  20280.69935855  .00000115  00000-0  19341-4 0  9998
2 40039  97.8797 194.8385 0013141 309.8815  50.1244 14.86191313341097
POLYITAN-1              
1 40042U 14033AJ  20280.60644574  .00000423  00000-0  51026-4 0  9996
2 40042  97.9237 205.5065 0013250 287.2127  72.7639 14.88952986341532
TIGRISAT                
1 40043U 14033AK  20280.85631884  .00000128  00000-0  26098-4 0  9997
2 40043  97.6961 131.6576 0059985   0.0128   0.1072 14.74414838338465
AEROCUBE 6A             
1 40045U 14033AM  20280.82704081  .00000238  00000-0  41219-4 0  9990
2 40045  97.7212 137.6616 0057757 351.0111   9.0060 14.75628395338533
AEROCUBE 6B             
1 40046U 14033AN  20280.83723573  .00000282  00000-0  47562-4 0  9995
2 40046  97.7115 136.8142 0056864 350.0766   9.9317 14.75628384338536
UKUBE-1                 
1 40074U 14037F   20280.79927994  .00000347  00000-0  48509-4 0  9992
2 40074  98.4516 115.7642 0005048 113.5904 246.5840 14.84334296338272
BRITE-PL2 (HEWELIUSZ)   
1 40119U 14049B   20280.80430678  .00000096  00000-0  17762-4 0  9993
2 40119  97.8943  11.9253 0018809 104.3999 255.9304 14.84539239332216
FIREBIRD 4              
1 40378U 15003C   20280.67651371  .00001813  00000-0  72465-4 0  9990
2 40378  99.0871   3.7162 0121872 302.6355  56.3162 15.20490941314211
GRIFEX                  
1 40379U 15003D   20280.65543651  .00001217  00000-0  54556-4 0  9999
2 40379  99.0917 354.9435 0131416 330.0460  29.3293 15.16711111313702
EXOCUBE (CP10)          
1 40380U 15003E   20280.94270188  .00001015  00000-0  48434-4 0  9999
2 40380  99.0980 350.6230 0136868 345.0980  14.6230 15.14618644313421
AEROCUBE 8A             
1 40659U 15025J   20280.77037998  .00028267  00000-0  26692-3 0  9992
2 40659  55.0134 136.6716 0101354 105.6501 255.5748 15.60458749 60917
AEROCUBE 8B             
1 40660U 15025K   20280.78443110  .00027472  00000-0  25634-3 0  9994
2 40660  55.0103 134.2066 0100274 107.8383 253.3624 15.60884191 60934
TIANWANG 1C (TW-1C)     
1 40926U 15051B   20280.79177940  .00036864  00000-0  29109-3 0  9990
2 40926  97.0691 333.5805 0005641  46.2634  46.8970 15.71295766284471
TIANWANG 1A (TW-1A)     
1 40928U 15051D   20280.89552291  .00003481  00000-0  80139-4 0  9999
2 40928  97.1026 306.0084 0011556 132.9406 349.6637 15.43215897282559
EXACTVIEW 9             
1 40936U 15052G   20280.68350492  .00000811  00000-0  24270-4 0  9993
2 40936   6.0034 267.1470 0010125  35.5740 324.5062 14.76599695271695
AEROCUBE 5C             
1 40965U 15058B   20280.92895753  .00000162  00000-0  38466-4 0  9993
2 40965  64.7781 166.2974 0176691  33.2963 327.9107 14.74570168 57745
AEROCUBE 7              
1 40966U 15058C   20280.95401218  .00000248  00000-0  48229-4 0  9999
2 40966  64.7780 164.5429 0175655  32.9505 328.2401 14.74881249 57755
ATHENOXAT 1             
1 41168U 15077C   20280.47564414  .00002378  00000-0  88331-4 0  9994
2 41168  14.9892 326.7147 0011150 234.0934 125.8352 15.14611998266193
GALASSIA                
1 41170U 15077E   20280.76592138  .00002312  00000-0  83965-4 0  9999
2 41170  14.9894 316.0640 0012450 265.9411  93.9487 15.14900928266306
VELOX-II                
1 41171U 15077F   20280.88700788  .00001725  00000-0  59751-4 0  9998
2 41171  14.9926   3.5037 0008603 155.2697 204.8037 15.11852832265909
